METEOSAT-11 (MSG-4)     
1 40732U 15034A   26117.11503288  .00000055  00000+0  00000+0 0  9992
2 40732   3.0740  71.3738 0001589 344.8606 209.8520  1.00264233  6705
ELEKTRO-L 2             
1 41105U 15074A   26117.06150145 -.00000123  00000+0  00000+0 0  9992
2 41105   6.5682  71.1388 0002271 256.8337 254.7105  1.00270643 37999
INSAT-3DR               
1 41752U 16054A   26116.96837249 -.00000088  00000+0  00000+0 0  9994
2 41752   0.1155  86.2537 0011578 195.0845 356.2288  1.00271580 35307
HIMAWARI-9              
1 41836U 16064A   26116.94970102 -.00000285  00000+0  00000+0 0  9991
2 41836   0.0386 122.4457 0000881 283.4654 291.6973  1.00274549 34696
GOES 16                 
1 41866U 16071A   26117.19874389 -.00000101  00000+0  00000+0 0  9997
2 41866   0.2138  85.2983 0001485 251.7192 205.0053  1.00271254 34599
FENGYUN 4A              
1 41882U 16077A   26116.94632100 -.00000366  00000+0  00000+0 0  9999
2 41882   2.1949  80.7916 0008114 141.1904  97.3367  1.00266708 34412
CYGFM05                 
1 41884U 16078A   26117.02929566  .00024710  00000+0  36334-3 0  9998
2 41884  34.9570 238.7661 0007099  26.6398 333.4689 15.54443402520787
CYGFM04                 
1 41885U 16078B   26116.63648113  .00033003  00000+0  41411-3 0  9998
2 41885  34.9326 211.4734 0006048  69.7373 290.4001 15.58659522520944
CYGFM02                 
1 41886U 16078C   26116.66000060  .00037532  00000+0  42981-3 0  9999
2 41886  34.9407 207.1678 0007146  71.0560 289.0939 15.61017103521108
CYGFM01                 
1 41887U 16078D   26116.71812335  .00028550  00000+0  41048-3 0  9995
2 41887  34.9403 242.2753 0006908  16.6774 343.4176 15.55033742520686
CYGFM08                 
1 41888U 16078E   26116.69600112  .00031913  00000+0  42026-3 0  9995
2 41888  34.9432 223.2640 0008060  49.0046 311.1375 15.57367031520930
CYGFM07                 
1 41890U 16078G   26116.65822152  .00030915  00000+0  40621-3 0  9994
2 41890  34.9448 211.8986 0006474  68.5433 291.5981 15.57445710520956
CYGFM03                 
1 41891U 16078H   26116.62916098  .00030952  00000+0  40668-3 0  9997
2 41891  34.9403 214.0471 0005783  54.5985 305.5279 15.57451399520924
FENGYUN 3D              
1 43010U 17072A   26117.19387920  .00000436  00000+0  22770-3 0  9994
2 43010  99.0094  90.7050 0001416 152.1851 207.9400 14.19729195437753
NOAA 20 (JPSS-1)        
1 43013U 17073A   26117.11053090  .00000054  00000+0  46547-4 0  9993
2 43013  98.7746  57.0337 0002095  71.6668 288.4736 14.19547740437227
GOES 17                 
1 43226U 18022A   26117.20253022 -.00000192  00000+0  00000+0 0  9994
2 43226   0.8088  86.3949 0000660 278.4125 193.8075  1.00271983 29918
FENGYUN 2H              
1 43491U 18050A   26117.00880792 -.00000138  00000+0  00000+0 0  9997
2 43491   2.9019  79.6483 0001673 158.5665  59.2180  1.00274296 28921
